SL-14 R/B               
1 16792U 86046B   25345.97358732  .00000846  00000+0  94800-4 0  9994
2 16792  82.4811 163.0378 0023735 154.7036 205.5348 14.85483407113382
SL-14 R/B               
1 16882U 86055B   25345.56015568  .00000704  00000+0  78583-4 0  9999
2 16882  82.5204 209.4812 0017460 263.6791 117.2819 14.85529088106282
AJISAI (EGS)            
1 16908U 86061A   25346.02562981 -.00000090  00000+0  51411-4 0  9993
2 16908  50.0113   2.9130 0011291  64.1046  29.2216 12.44514266457087
COSMOS 1812             
1 17295U 87003A   25345.90469904  .00120796  00000+0  79456-3 0  9990
2 17295  82.4866 292.9202 0007236  87.9224 272.2869 15.75276479130526
SL-14 R/B               
1 17567U 87024B   25345.97145702  .00000765  00000+0  84579-4 0  9995
2 17567  82.5275 175.1763 0018013 186.7812 173.3164 14.86022458 75101
COSMOS 1833             
1 17589U 87027A   25345.86829053  .00000153  00000+0  10764-3 0  9993
2 17589  70.9137 150.6093 0022498 332.9357  27.0589 14.13021127997907
SL-16 R/B               
1 17590U 87027B   25345.60250828 -.00000027  00000+0  10601-4 0  9997
2 17590  71.0028 102.1142 0007439 260.6811  99.3472 14.17152040  2865
SL-14 R/B               
1 17912U 87038B   25345.38239810  .00000730  00000+0  81989-4 0  9997
2 17912  82.5018  19.9795 0020895  96.2495 264.1102 14.85259667 66129
COSMOS 1844             
1 17973U 87041A   25345.99626284 -.00000059  00000+0 -53495-5 0  9998
2 17973  70.8977 219.1398 0030095 158.3158 201.9246 14.14526111991186
SL-14 R/B               
1 18153U 87055B   25345.50922544  .00000862  00000+0  96826-4 0  9993
2 18153  82.5002  72.1482 0019470 307.6660  52.2790 14.85519771 56846
COSMOS 1867             
1 18187U 87060A   25345.97410392 -.00000011  00000+0  33399-4 0  9993
2 18187  65.0092 192.3470 0013624 271.0133  88.9390 14.31485875  7389
SL-14 R/B               
1 18749U 88001B   25345.97027238  .00000834  00000+0  93789-4 0  9997
2 18749  82.5132 277.8709 0018409 163.5611 196.6206 14.85422801 29003
