CCSDS_OMM_VERS = 2.0
CREATION_DATE  = 
ORIGINATOR     = 

OBJECT_NAME    = SL-14 R/B
OBJECT_ID      = 1986-046B
CENTER_NAME    = EARTH
REF_FRAME      = TEME
TIME_SYSTEM    = UTC
MEAN_ELEMENT_THEORY = SGP/SGP4

EPOCH          = 2025-12-11T23:21:57.944448
MEAN_MOTION    = 14.85483407
ECCENTRICITY   = .00237354
INCLINATION    = 82.4811
RA_OF_ASC_NODE = 163.0378
ARG_OF_PERICENTER = 154.7036
MEAN_ANOMALY   = 205.5348

EPHEMERIS_TYPE = 0
CLASSIFICATION_TYPE = U
NORAD_CAT_ID   = 16792
ELEMENT_SET_NO = 999
REV_AT_EPOCH   = 11338
BSTAR          = .94800277E-4
MEAN_MOTION_DOT = .846E-5
MEAN_MOTION_DDOT = 0

CCSDS_OMM_VERS = 2.0
CREATION_DATE  = 
ORIGINATOR     = 

OBJECT_NAME    = SL-14 R/B
OBJECT_ID      = 1986-055B
CENTER_NAME    = EARTH
REF_FRAME      = TEME
TIME_SYSTEM    = UTC
MEAN_ELEMENT_THEORY = SGP/SGP4

EPOCH          = 2025-12-11T13:26:37.450752
MEAN_MOTION    = 14.85529088
ECCENTRICITY   = .00174608
INCLINATION    = 82.5204
RA_OF_ASC_NODE = 209.4812
ARG_OF_PERICENTER = 263.6791
MEAN_ANOMALY   = 117.2819

EPHEMERIS_TYPE = 0
CLASSIFICATION_TYPE = U
NORAD_CAT_ID   = 16882
ELEMENT_SET_NO = 999
REV_AT_EPOCH   = 10628
BSTAR          = .78582768E-4
MEAN_MOTION_DOT = .704E-5
MEAN_MOTION_DDOT = 0

CCSDS_OMM_VERS = 2.0
CREATION_DATE  = 
ORIGINATOR     = 

OBJECT_NAME    = AJISAI (EGS)
OBJECT_ID      = 1986-061A
CENTER_NAME    = EARTH
REF_FRAME      = TEME
TIME_SYSTEM    = UTC
MEAN_ELEMENT_THEORY = SGP/SGP4

EPOCH          = 2025-12-12T00:36:54.415584
MEAN_MOTION    = 12.44514266
ECCENTRICITY   = .00112919
INCLINATION    = 50.0113
RA_OF_ASC_NODE = 2.9130
ARG_OF_PERICENTER = 64.1046
MEAN_ANOMALY   = 29.2216

EPHEMERIS_TYPE = 0
CLASSIFICATION_TYPE = U
NORAD_CAT_ID   = 16908
ELEMENT_SET_NO = 999
REV_AT_EPOCH   = 45708
BSTAR          = .51411346E-4
MEAN_MOTION_DOT = -.9E-6
MEAN_MOTION_DDOT = 0

CCSDS_OMM_VERS = 2.0
CREATION_DATE  = 
ORIGINATOR     = 

OBJECT_NAME    = COSMOS 1812
OBJECT_ID      = 1987-003A
CENTER_NAME    = EARTH
REF_FRAME      = TEME
TIME_SYSTEM    = UTC
MEAN_ELEMENT_THEORY = SGP/SGP4

EPOCH          = 2025-12-11T21:42:45.997056
MEAN_MOTION    = 15.75276479
ECCENTRICITY   = .00072364
INCLINATION    = 82.4866
RA_OF_ASC_NODE = 292.9202
ARG_OF_PERICENTER = 87.9224
MEAN_ANOMALY   = 272.2869

EPHEMERIS_TYPE = 0
CLASSIFICATION_TYPE = U
NORAD_CAT_ID   = 17295
ELEMENT_SET_NO = 999
REV_AT_EPOCH   = 13052
BSTAR          = .79456161E-3
MEAN_MOTION_DOT = .120796E-2
MEAN_MOTION_DDOT = 0

CCSDS_OMM_VERS = 2.0
CREATION_DATE  = 
ORIGINATOR     = 

OBJECT_NAME    = SL-14 R/B
OBJECT_ID      = 1987-024B
CENTER_NAME    = EARTH
REF_FRAME      = TEME
TIME_SYSTEM    = UTC
MEAN_ELEMENT_THEORY = SGP/SGP4

EPOCH          = 2025-12-11T23:18:53.886528
MEAN_MOTION    = 14.86022458
ECCENTRICITY   = .0018013
INCLINATION    = 82.5275
RA_OF_ASC_NODE = 175.1763
ARG_OF_PERICENTER = 186.7812
MEAN_ANOMALY   = 173.3164

EPHEMERIS_TYPE = 0
CLASSIFICATION_TYPE = U
NORAD_CAT_ID   = 17567
ELEMENT_SET_NO = 999
REV_AT_EPOCH   = 7510
BSTAR          = .84578528E-4
MEAN_MOTION_DOT = .765E-5
MEAN_MOTION_DDOT = 0

CCSDS_OMM_VERS = 2.0
CREATION_DATE  = 
ORIGINATOR     = 

OBJECT_NAME    = COSMOS 1833
OBJECT_ID      = 1987-027A
CENTER_NAME    = EARTH
REF_FRAME      = TEME
TIME_SYSTEM    = UTC
MEAN_ELEMENT_THEORY = SGP/SGP4

EPOCH          = 2025-12-11T20:50:20.301792
MEAN_MOTION    = 14.13021127
ECCENTRICITY   = .00224986
INCLINATION    = 70.9137
RA_OF_ASC_NODE = 150.6093
ARG_OF_PERICENTER = 332.9357
MEAN_ANOMALY   = 27.0589

EPHEMERIS_TYPE = 0
CLASSIFICATION_TYPE = U
NORAD_CAT_ID   = 17589
ELEMENT_SET_NO = 999
REV_AT_EPOCH   = 99790
BSTAR          = .10764252E-3
MEAN_MOTION_DOT = .153E-5
MEAN_MOTION_DDOT = 0

CCSDS_OMM_VERS = 2.0
CREATION_DATE  = 
ORIGINATOR     = 

OBJECT_NAME    = SL-16 R/B
OBJECT_ID      = 1987-027B
CENTER_NAME    = EARTH
REF_FRAME      = TEME
TIME_SYSTEM    = UTC
MEAN_ELEMENT_THEORY = SGP/SGP4

EPOCH          = 2025-12-11T14:27:36.715392
MEAN_MOTION    = 14.17152040
ECCENTRICITY   = .00074394
INCLINATION    = 71.0028
RA_OF_ASC_NODE = 102.1142
ARG_OF_PERICENTER = 260.6811
MEAN_ANOMALY   = 99.3472

EPHEMERIS_TYPE = 0
CLASSIFICATION_TYPE = U
NORAD_CAT_ID   = 17590
ELEMENT_SET_NO = 999
REV_AT_EPOCH   = 286
BSTAR          = .10600863E-4
MEAN_MOTION_DOT = -.27E-6
MEAN_MOTION_DDOT = 0

CCSDS_OMM_VERS = 2.0
CREATION_DATE  = 
ORIGINATOR     = 

OBJECT_NAME    = SL-14 R/B
OBJECT_ID      = 1987-038B
CENTER_NAME    = EARTH
REF_FRAME      = TEME
TIME_SYSTEM    = UTC
MEAN_ELEMENT_THEORY = SGP/SGP4

EPOCH          = 2025-12-11T09:10:39.195840
MEAN_MOTION    = 14.85259667
ECCENTRICITY   = .0020895
INCLINATION    = 82.5018
RA_OF_ASC_NODE = 19.9795
ARG_OF_PERICENTER = 96.2495
MEAN_ANOMALY   = 264.1102

EPHEMERIS_TYPE = 0
CLASSIFICATION_TYPE = U
NORAD_CAT_ID   = 17912
ELEMENT_SET_NO = 999
REV_AT_EPOCH   = 6612
BSTAR          = .81988939E-4
MEAN_MOTION_DOT = .73E-5
MEAN_MOTION_DDOT = 0

CCSDS_OMM_VERS = 2.0
CREATION_DATE  = 
ORIGINATOR     = 

OBJECT_NAME    = COSMOS 1844
OBJECT_ID      = 1987-041A
CENTER_NAME    = EARTH
REF_FRAME      = TEME
TIME_SYSTEM    = UTC
MEAN_ELEMENT_THEORY = SGP/SGP4

EPOCH          = 2025-12-11T23:54:37.109376
MEAN_MOTION    = 14.14526111
ECCENTRICITY   = .00300954
INCLINATION    = 70.8977
RA_OF_ASC_NODE = 219.1398
ARG_OF_PERICENTER = 158.3158
MEAN_ANOMALY   = 201.9246

EPHEMERIS_TYPE = 0
CLASSIFICATION_TYPE = U
NORAD_CAT_ID   = 17973
ELEMENT_SET_NO = 999
REV_AT_EPOCH   = 99118
BSTAR          = -.5349454E-5
MEAN_MOTION_DOT = -.59E-6
MEAN_MOTION_DDOT = 0

CCSDS_OMM_VERS = 2.0
CREATION_DATE  = 
ORIGINATOR     = 

OBJECT_NAME    = SL-14 R/B
OBJECT_ID      = 1987-055B
CENTER_NAME    = EARTH
REF_FRAME      = TEME
TIME_SYSTEM    = UTC
MEAN_ELEMENT_THEORY = SGP/SGP4

EPOCH          = 2025-12-11T12:13:17.078016
MEAN_MOTION    = 14.85519771
ECCENTRICITY   = .00194701
INCLINATION    = 82.5002
RA_OF_ASC_NODE = 72.1482
ARG_OF_PERICENTER = 307.6660
MEAN_ANOMALY   = 52.2790

EPHEMERIS_TYPE = 0
CLASSIFICATION_TYPE = U
NORAD_CAT_ID   = 18153
ELEMENT_SET_NO = 999
REV_AT_EPOCH   = 5684
BSTAR          = .96825878E-4
MEAN_MOTION_DOT = .862E-5
MEAN_MOTION_DDOT = 0

CCSDS_OMM_VERS = 2.0
CREATION_DATE  = 
ORIGINATOR     = 

OBJECT_NAME    = COSMOS 1867
OBJECT_ID      = 1987-060A
CENTER_NAME    = EARTH
REF_FRAME      = TEME
TIME_SYSTEM    = UTC
MEAN_ELEMENT_THEORY = SGP/SGP4

EPOCH          = 2025-12-11T23:22:42.578688
MEAN_MOTION    = 14.31485875
ECCENTRICITY   = .00136243
INCLINATION    = 65.0092
RA_OF_ASC_NODE = 192.3470
ARG_OF_PERICENTER = 271.0133
MEAN_ANOMALY   = 88.9390

EPHEMERIS_TYPE = 0
CLASSIFICATION_TYPE = U
NORAD_CAT_ID   = 18187
ELEMENT_SET_NO = 999
REV_AT_EPOCH   = 738
BSTAR          = .3339904E-4
MEAN_MOTION_DOT = -.11E-6
MEAN_MOTION_DDOT = 0

CCSDS_OMM_VERS = 2.0
CREATION_DATE  = 
ORIGINATOR     = 

OBJECT_NAME    = SL-14 R/B
OBJECT_ID      = 1988-001B
CENTER_NAME    = EARTH
REF_FRAME      = TEME
TIME_SYSTEM    = UTC
MEAN_ELEMENT_THEORY = SGP/SGP4

EPOCH          = 2025-12-11T23:17:11.533632
MEAN_MOTION    = 14.85422801
ECCENTRICITY   = .00184093
INCLINATION    = 82.5132
RA_OF_ASC_NODE = 277.8709
ARG_OF_PERICENTER = 163.5611
MEAN_ANOMALY   = 196.6206

EPHEMERIS_TYPE = 0
CLASSIFICATION_TYPE = U
NORAD_CAT_ID   = 18749
ELEMENT_SET_NO = 999
REV_AT_EPOCH   = 2900
BSTAR          = .93788558E-4
MEAN_MOTION_DOT = .834E-5
MEAN_MOTION_DDOT = 0

